{
    "links": {
        "self": "http://www.neowsapp.com/rest/v1/neo/3972418?api_key=iIulBulltgU6a56xZRHN4H3l9WmuAYTsLGpBGhQ2"
    },
    "id": "3972418",
    "neo_reference_id": "3972418",
    "name": "(2020 AQ)",
    "designation": "2020 AQ",
    "nasa_jpl_url": "http://ssd.jpl.nasa.gov/sbdb.cgi?sstr=3972418",
    "absolute_magnitude_h": 21.4,
    "estimated_diameter": {
        "kilometers": {
            "estimated_diameter_min": 0.1394938229,
            "estimated_diameter_max": 0.3119176705
        },
        "meters": {
            "estimated_diameter_min": 139.4938229344,
            "estimated_diameter_max": 311.9176705226
        },
        "miles": {
            "estimated_diameter_min": 0.0866774163,
            "estimated_diameter_max": 0.1938165949
        },
        "feet": {
            "estimated_diameter_min": 457.6569140361,
            "estimated_diameter_max": 1023.3519701574
        }
    },
    "is_potentially_hazardous_asteroid": false,
    "close_approach_data": [
        {
            "close_approach_date": "2014-08-23",
            "close_approach_date_full": "2014-Aug-23 04:57",
            "epoch_date_close_approach": 1408769820000,
            "relative_velocity": {
                "kilometers_per_second": "13.0180617345",
                "kilometers_per_hour": "46865.0222441046",
                "miles_per_hour": "29120.1022938438"
            },
            "miss_distance": {
                "astronomical": "0.4138275339",
                "lunar": "160.9789106871",
                "kilometers": "61907717.618792793",
                "miles": "38467671.9586668234"
            },
            "orbiting_body": "Earth"
        },
        {
            "close_approach_date": "2019-12-23",
            "close_approach_date_full": "2019-Dec-23 05:01",
            "epoch_date_close_approach": 1577077260000,
            "relative_velocity": {
                "kilometers_per_second": "12.4367009818",
                "kilometers_per_hour": "44772.1235343425",
                "miles_per_hour": "27819.656426103"
            },
            "miss_distance": {
                "astronomical": "0.4972402656",
                "lunar": "193.4264633184",
                "kilometers": "74386084.611994272",
                "miles": "46221369.6645020736"
            },
            "orbiting_body": "Earth"
        }
    ],
    "orbital_data": {
        "orbit_id": "6",
        "orbit_determination_date": "2020-02-18 13:46:56",
        "first_observation_date": "2019-12-30",
        "last_observation_date": "2020-01-19",
        "data_arc_in_days": 20,
        "observations_used": 20,
        "orbit_uncertainty": "7",
        "minimum_orbit_intersection": ".414508",
        "jupiter_tisserand_invariant": "3.858",
        "epoch_osculation": "2459000.5",
        "eccentricity": ".3432588589533143",
        "semi_major_axis": "1.822696173146504",
        "inclination": "25.54349601690946",
        "ascending_node_longitude": "303.3426444401968",
        "orbital_period": "898.8140436540853",
        "perihelion_distance": "1.197039564533662",
        "perihelion_argument": "84.28557286855506",
        "aphelion_distance": "2.448352781759345",
        "perihelion_time": "2458759.086367151318",
        "mean_anomaly": "96.69286816236357",
        "mean_motion": ".4005277871899256",
        "equinox": "J2000",
        "orbit_class": {
            "orbit_class_type": "AMO",
            "orbit_class_description": "Near-Earth asteroid orbits similar to that of 1221 Amor",
            "orbit_class_range": "1.017 AU < q (perihelion) < 1.3 AU"
        }
    },
    "is_sentry_object": false
}